ONEWEB-0634             
1 56075U 23043AF  25250.90014925 -.00000048  00000+0 -16233-3 0  9990
2 56075  87.9049 315.5554 0001866 107.4232 252.7102 13.15550118119280
ONEWEB-0635             
1 56076U 23043AG  25250.89540321 -.00000044  00000+0 -15199-3 0  9999
2 56076  87.9031 315.5205 0002067  89.9598 270.1769 13.15549100119314
ONEWEB-0636             
1 56077U 23043AH  25250.88747830  .00000023  00000+0  27652-4 0  9996
2 56077  87.9038 315.5381 0002022  91.6561 268.4801 13.15549717119296
ONEWEB-0637             
1 56078U 23043AJ  25250.72903962 -.00000056  00000+0 -18285-3 0  9999
2 56078  87.9042 315.5825 0002259  98.4990 261.6396 13.15547534119297
ONEWEB-0647             
1 56079U 23043AK  25250.72426869 -.00000013  00000+0 -69472-4 0  9994
2 56079  87.9046 315.5962 0001828  91.9118 268.2221 13.15548293119287
ONEWEB-0651             
1 56080U 23043AL  25250.71952228  .00000846  00000+0  22121-2 0  9998
2 56080  87.9054 315.5881 0002129  94.6935 265.4439 13.15544356120480
ONEWEB-0718             
1 56081U 23043AM  25250.71477317  .00000065  00000+0  13851-3 0  9994
2 56081  87.9048 315.5706 0002024 114.9718 245.1622 13.15548349119291
ONEWEB-0561             
1 56710U 23068A   25250.92796153  .00000108  00000+0  23288-3 0  9998
2 56710  87.9279 330.7236 0002017  84.7227 275.4137 13.20770444112248
